ONEWEB-0675             
1 55834U 23029AQ  26106.87143424 -.00000748  00000+0 -18998-2 0  9996
2 55834  87.9165 317.2061 0001498  79.8265 280.3037 13.19730650150837
ONEWEB-0720             
1 55835U 23029AR  26106.86353958 -.00000213  00000+0 -56471-3 0  9997
2 55835  87.9162 317.2082 0002035  81.1091 279.0272 13.19725236150750
ONEWEB-0537             
1 56046U 23043A   26106.40907231 -.00000027  00000+0 -10403-3 0  9995
2 56046  87.9061 241.0439 0001634 102.7600 257.3714 13.16594016150839
ONEWEB-0538             
1 56047U 23043B   26106.63070433 -.00000033  00000+0 -11979-3 0  9992
2 56047  87.9063 241.0016 0001722  93.2701 266.8627 13.16591351150878
ONEWEB-0546             
1 56048U 23043C   26106.61805860 -.00000011  00000+0 -61180-4 0  9997
2 56048  87.9066 241.0034 0001241 115.0198 245.1062 13.16593197150863
ONEWEB-0547             
1 56049U 23043D   26106.70693280  .00000019  00000+0  14905-4 0  9998
2 56049  87.9209 256.2159 0001897  93.1304 267.0047 13.21824500150105
ONEWEB-0548             
1 56050U 23043E   26106.64258859  .00000037  00000+0  63774-4 0  9990
2 56050  87.9063 240.9967 0002168 112.0803 248.0558 13.16596208150863
ONEWEB-0549             
1 56051U 23043F   26106.70107191 -.00000076  00000+0 -21669-3 0  9991
2 56051  87.9197 256.2275 0001792  90.1920 269.9419 13.21827034150107
ONEWEB-0550             
1 56052U 23043G   26106.68761278  .00000016  00000+0  60440-5 0  9995
2 56052  87.9199 256.2265 0001996 106.0749 254.0605 13.21825419150108
ONEWEB-0551             
1 56053U 23043H   26106.70091233 -.00000016  00000+0 -77716-4 0  9991
2 56053  87.8938 271.4938 0001843  85.6727 274.4613 13.15547270148318
ONEWEB-0552             
1 56054U 23043J   26106.83395819  .00000122  00000+0  26358-3 0  9994
2 56054  87.9197 256.2043 0002019  95.6534 264.4830 13.21825924150122
ONEWEB-0553             
1 56055U 23043K   26106.62439514  .00000021  00000+0  22170-4 0  9990
2 56055  87.9064 241.0036 0001596 112.2914 247.8387 13.16594300150876
ONEWEB-0554             
1 56056U 23043L   26106.61172889  .00000067  00000+0  14174-3 0  9993
2 56056  87.9063 241.0160 0001968 110.0818 250.0525 13.16593935150857
ONEWEB-0555             
1 56057U 23043M   26106.64970622 -.00000003  00000+0 -42167-4 0  9994
2 56057  87.9066 240.9942 0001358 115.7539 244.3733 13.16595346150868
ONEWEB-0557             
1 56058U 23043N   26106.81597125  .00000060  00000+0  12234-3 0  9999
2 56058  87.9065 240.9724 0002216 136.9350 223.1955 13.16593340150881
ONEWEB-0558             
1 56059U 23043P   26106.67582267  .00000067  00000+0  12982-3 0  9992
2 56059  87.9199 256.2293 0001943  84.9613 275.1742 13.21828168150113
