[{"OBJECT_NAME":"ONEWEB-0675","OBJECT_ID":"2023-029AQ","EPOCH":"2026-04-16T20:54:51.918336","MEAN_MOTION":13.1973065,"ECCENTRICITY":0.0001498,"INCLINATION":87.9165,"RA_OF_ASC_NODE":317.2061,"ARG_OF_PERICENTER":79.8265,"MEAN_ANOMALY":280.3037,"EPHEMERIS_TYPE":0,"CLASSIFICATION_TYPE":"U","NORAD_CAT_ID":55834,"ELEMENT_SET_NO":999,"REV_AT_EPOCH":15083,"BSTAR":-0.0018998,"MEAN_MOTION_DOT":-7.48e-06,"MEAN_MOTION_DDOT":0.0},{"OBJECT_NAME":"ONEWEB-0720","OBJECT_ID":"2023-029AR","EPOCH":"2026-04-16T20:43:29.819712","MEAN_MOTION":13.19725236,"ECCENTRICITY":0.0002035,"INCLINATION":87.9162,"RA_OF_ASC_NODE":317.2082,"ARG_OF_PERICENTER":81.1091,"MEAN_ANOMALY":279.0272,"EPHEMERIS_TYPE":0,"CLASSIFICATION_TYPE":"U","NORAD_CAT_ID":55835,"ELEMENT_SET_NO":999,"REV_AT_EPOCH":15075,"BSTAR":-0.0005647100000000001,"MEAN_MOTION_DOT":-2.13e-06,"MEAN_MOTION_DDOT":0.0},{"OBJECT_NAME":"ONEWEB-0537","OBJECT_ID":"2023-043A","EPOCH":"2026-04-16T09:49:03.847584","MEAN_MOTION":13.16594016,"ECCENTRICITY":0.0001634,"INCLINATION":87.9061,"RA_OF_ASC_NODE":241.0439,"ARG_OF_PERICENTER":102.76,"MEAN_ANOMALY":257.3714,"EPHEMERIS_TYPE":0,"CLASSIFICATION_TYPE":"U","NORAD_CAT_ID":56046,"ELEMENT_SET_NO":999,"REV_AT_EPOCH":15083,"BSTAR":-0.00010403,"MEAN_MOTION_DOT":-2.7e-07,"MEAN_MOTION_DDOT":0.0},{"OBJECT_NAME":"ONEWEB-0538","OBJECT_ID":"2023-043B","EPOCH":"2026-04-16T15:08:12.854112","MEAN_MOTION":13.16591351,"ECCENTRICITY":0.0001722,"INCLINATION":87.9063,"RA_OF_ASC_NODE":241.0016,"ARG_OF_PERICENTER":93.2701,"MEAN_ANOMALY":266.8627,"EPHEMERIS_TYPE":0,"CLASSIFICATION_TYPE":"U","NORAD_CAT_ID":56047,"ELEMENT_SET_NO":999,"REV_AT_EPOCH":15087,"BSTAR":-0.00011978999999999999,"MEAN_MOTION_DOT":-3.3e-07,"MEAN_MOTION_DDOT":0.0},{"OBJECT_NAME":"ONEWEB-0546","OBJECT_ID":"2023-043C","EPOCH":"2026-04-16T14:50:00.263040","MEAN_MOTION":13.16593197,"ECCENTRICITY":0.0001241,"INCLINATION":87.9066,"RA_OF_ASC_NODE":241.0034,"ARG_OF_PERICENTER":115.0198,"MEAN_ANOMALY":245.1062,"EPHEMERIS_TYPE":0,"CLASSIFICATION_TYPE":"U","NORAD_CAT_ID":56048,"ELEMENT_SET_NO":999,"REV_AT_EPOCH":15086,"BSTAR":-6.118000000000001e-05,"MEAN_MOTION_DOT":-1.1e-07,"MEAN_MOTION_DDOT":0.0},{"OBJECT_NAME":"ONEWEB-0547","OBJECT_ID":"2023-043D","EPOCH":"2026-04-16T16:57:58.993920","MEAN_MOTION":13.218245,"ECCENTRICITY":0.0001897,"INCLINATION":87.9209,"RA_OF_ASC_NODE":256.2159,"ARG_OF_PERICENTER":93.1304,"MEAN_ANOMALY":267.0047,"EPHEMERIS_TYPE":0,"CLASSIFICATION_TYPE":"U","NORAD_CAT_ID":56049,"ELEMENT_SET_NO":999,"REV_AT_EPOCH":15010,"BSTAR":1.4904999999999999e-05,"MEAN_MOTION_DOT":1.9e-07,"MEAN_MOTION_DDOT":0.0},{"OBJECT_NAME":"ONEWEB-0548","OBJECT_ID":"2023-043E","EPOCH":"2026-04-16T15:25:19.654176","MEAN_MOTION":13.16596208,"ECCENTRICITY":0.0002168,"INCLINATION":87.9063,"RA_OF_ASC_NODE":240.9967,"ARG_OF_PERICENTER":112.0803,"MEAN_ANOMALY":248.0558,"EPHEMERIS_TYPE":0,"CLASSIFICATION_TYPE":"U","NORAD_CAT_ID":56050,"ELEMENT_SET_NO":999,"REV_AT_EPOCH":15086,"BSTAR":6.3774e-05,"MEAN_MOTION_DOT":3.7e-07,"MEAN_MOTION_DDOT":0.0},{"OBJECT_NAME":"ONEWEB-0549","OBJECT_ID":"2023-043F","EPOCH":"2026-04-16T16:49:32.613024","MEAN_MOTION":13.21827034,"ECCENTRICITY":0.0001792,"INCLINATION":87.9197,"RA_OF_ASC_NODE":256.2275,"ARG_OF_PERICENTER":90.192,"MEAN_ANOMALY":269.9419,"EPHEMERIS_TYPE":0,"CLASSIFICATION_TYPE":"U","NORAD_CAT_ID":56051,"ELEMENT_SET_NO":999,"REV_AT_EPOCH":15010,"BSTAR":-0.00021669,"MEAN_MOTION_DOT":-7.6e-07,"MEAN_MOTION_DDOT":0.0},{"OBJECT_NAME":"ONEWEB-0550","OBJECT_ID":"2023-043G","EPOCH":"2026-04-16T16:30:09.744192","MEAN_MOTION":13.21825419,"ECCENTRICITY":0.0001996,"INCLINATION":87.9199,"RA_OF_ASC_NODE":256.2265,"ARG_OF_PERICENTER":106.0749,"MEAN_ANOMALY":254.0605,"EPHEMERIS_TYPE":0,"CLASSIFICATION_TYPE":"U","NORAD_CAT_ID":56052,"ELEMENT_SET_NO":999,"REV_AT_EPOCH":15010,"BSTAR":6.044000000000001e-06,"MEAN_MOTION_DOT":1.6e-07,"MEAN_MOTION_DDOT":0.0},{"OBJECT_NAME":"ONEWEB-0551","OBJECT_ID":"2023-043H","EPOCH":"2026-04-16T16:49:18.825312","MEAN_MOTION":13.1554727,"ECCENTRICITY":0.0001843,"INCLINATION":87.8938,"RA_OF_ASC_NODE":271.4938,"ARG_OF_PERICENTER":85.6727,"MEAN_ANOMALY":274.4613,"EPHEMERIS_TYPE":0,"CLASSIFICATION_TYPE":"U","NORAD_CAT_ID":56053,"ELEMENT_SET_NO":999,"REV_AT_EPOCH":14831,"BSTAR":-7.7716e-05,"MEAN_MOTION_DOT":-1.6e-07,"MEAN_MOTION_DDOT":0.0},{"OBJECT_NAME":"ONEWEB-0552","OBJECT_ID":"2023-043J","EPOCH":"2026-04-16T20:00:53.987616","MEAN_MOTION":13.21825924,"ECCENTRICITY":0.0002019,"INCLINATION":87.9197,"RA_OF_ASC_NODE":256.2043,"ARG_OF_PERICENTER":95.6534,"MEAN_ANOMALY":264.483,"EPHEMERIS_TYPE":0,"CLASSIFICATION_TYPE":"U","NORAD_CAT_ID":56054,"ELEMENT_SET_NO":999,"REV_AT_EPOCH":15012,"BSTAR":0.00026357999999999997,"MEAN_MOTION_DOT":1.22e-06,"MEAN_MOTION_DDOT":0.0},{"OBJECT_NAME":"ONEWEB-0553","OBJECT_ID":"2023-043K","EPOCH":"2026-04-16T14:59:07.740096","MEAN_MOTION":13.165943,"ECCENTRICITY":0.0001596,"INCLINATION":87.9064,"RA_OF_ASC_NODE":241.0036,"ARG_OF_PERICENTER":112.2914,"MEAN_ANOMALY":247.8387,"EPHEMERIS_TYPE":0,"CLASSIFICATION_TYPE":"U","NORAD_CAT_ID":56055,"ELEMENT_SET_NO":999,"REV_AT_EPOCH":15087,"BSTAR":2.2170000000000003e-05,"MEAN_MOTION_DOT":2.1e-07,"MEAN_MOTION_DDOT":0.0},{"OBJECT_NAME":"ONEWEB-0554","OBJECT_ID":"2023-043L","EPOCH":"2026-04-16T14:40:53.376096","MEAN_MOTION":13.16593935,"ECCENTRICITY":0.0001968,"INCLINATION":87.9063,"RA_OF_ASC_NODE":241.016,"ARG_OF_PERICENTER":110.0818,"MEAN_ANOMALY":250.0525,"EPHEMERIS_TYPE":0,"CLASSIFICATION_TYPE":"U","NORAD_CAT_ID":56056,"ELEMENT_SET_NO":999,"REV_AT_EPOCH":15085,"BSTAR":0.00014174,"MEAN_MOTION_DOT":6.7e-07,"MEAN_MOTION_DDOT":0.0},{"OBJECT_NAME":"ONEWEB-0555","OBJECT_ID":"2023-043M","EPOCH":"2026-04-16T15:35:34.617408","MEAN_MOTION":13.16595346,"ECCENTRICITY":0.0001358,"INCLINATION":87.9066,"RA_OF_ASC_NODE":240.9942,"ARG_OF_PERICENTER":115.7539,"MEAN_ANOMALY":244.3733,"EPHEMERIS_TYPE":0,"CLASSIFICATION_TYPE":"U","NORAD_CAT_ID":56057,"ELEMENT_SET_NO":999,"REV_AT_EPOCH":15086,"BSTAR":-4.2167e-05,"MEAN_MOTION_DOT":-3e-08,"MEAN_MOTION_DDOT":0.0},{"OBJECT_NAME":"ONEWEB-0557","OBJECT_ID":"2023-043N","EPOCH":"2026-04-16T19:34:59.916000","MEAN_MOTION":13.1659334,"ECCENTRICITY":0.0002216,"INCLINATION":87.9065,"RA_OF_ASC_NODE":240.9724,"ARG_OF_PERICENTER":136.935,"MEAN_ANOMALY":223.1955,"EPHEMERIS_TYPE":0,"CLASSIFICATION_TYPE":"U","NORAD_CAT_ID":56058,"ELEMENT_SET_NO":999,"REV_AT_EPOCH":15088,"BSTAR":0.00012234,"MEAN_MOTION_DOT":6e-07,"MEAN_MOTION_DDOT":0.0},{"OBJECT_NAME":"ONEWEB-0558","OBJECT_ID":"2023-043P","EPOCH":"2026-04-16T16:13:11.078688","MEAN_MOTION":13.21828168,"ECCENTRICITY":0.0001943,"INCLINATION":87.9199,"RA_OF_ASC_NODE":256.2293,"ARG_OF_PERICENTER":84.9613,"MEAN_ANOMALY":275.1742,"EPHEMERIS_TYPE":0,"CLASSIFICATION_TYPE":"U","NORAD_CAT_ID":56059,"ELEMENT_SET_NO":999,"REV_AT_EPOCH":15011,"BSTAR":0.00012982,"MEAN_MOTION_DOT":6.7e-07,"MEAN_MOTION_DDOT":0.0}]